[{"OBJECT_NAME":"STARLINK-4402","OBJECT_ID":"2022-099AW","EPOCH":"2026-03-09T22:18:27.532512","MEAN_MOTION":15.01261175,"ECCENTRICITY":0.00033134,"INCLINATION":97.6025,"RA_OF_ASC_NODE":190.4528,"ARG_OF_PERICENTER":77.792,"MEAN_ANOMALY":282.3676,"EPHEMERIS_TYPE":0,"CLASSIFICATION_TYPE":"U","NORAD_CAT_ID":53509,"ELEMENT_SET_NO":999,"REV_AT_EPOCH":19602,"BSTAR":9.353915e-6,"MEAN_MOTION_DOT":6.2e-7,"MEAN_MOTION_DDOT":0},{"OBJECT_NAME":"KUIPER-00139","OBJECT_ID":"2025-217D","EPOCH":"2026-03-09T07:26:02.378400","MEAN_MOTION":15.01890214,"ECCENTRICITY":0.00071199,"INCLINATION":51.8865,"RA_OF_ASC_NODE":35.54,"ARG_OF_PERICENTER":318.901,"MEAN_ANOMALY":41.1425,"EPHEMERIS_TYPE":0,"CLASSIFICATION_TYPE":"U","NORAD_CAT_ID":65765,"ELEMENT_SET_NO":999,"REV_AT_EPOCH":2495,"BSTAR":0.00087196011,"MEAN_MOTION_DOT":0.00011274,"MEAN_MOTION_DDOT":0}]
